{"type": "FeatureCollection", "features": [ {"type": "Feature", "properties": {"norad_id": 60989, "name": "SENTINEL-2C", "group": "resource", "lat": -57.05712365419561, "lon": 77.76426961071652, "alt_km": 796.8378065828656, "timestamp": "2025-12-17T21:39:45.366575+00:00", "meta": {"OBJECT_NAME": "SENTINEL-2C", "OBJECT_ID": "2024-157A", "EPOCH": "2025-12-17T15:13:13.141632", "MEAN_MOTION": 14.30819503, "ECCENTRICITY": 0.00012278, "INCLINATION": 98.5679, "RA_OF_ASC_NODE": 64.0462, "ARG_OF_PERICENTER": 96.8393, "MEAN_ANOMALY": 263.2929, "EPHEMERIS_TYPE": 0, "CLASSIFICATION_TYPE": "U", "NORAD_CAT_ID": 60989, "ELEMENT_SET_NO": 999, "REV_AT_EPOCH": 6702, "BSTAR": 6.2207357e-05, "MEAN_MOTION_DOT": 1.19e-06, "MEAN_MOTION_DDOT": 0}, "tle": {"line1": "1 60989U 24157A   25351.63417988  .00000119  00000+0  62207-4 0  9994", "line2": "2 60989  98.5679  64.0462 0001227  96.8393 263.2929 14.30819503 67022"}}, "geometry": {"type": "Point", "coordinates": [77.76426961071652, -57.05712365419561]}}, {"type": "Feature", "properties": {"norad_id": 61735, "name": "IONOSFERA-M 1", "group": "resource", "lat": 56.92665840627953, "lon": -151.95275528474113, "alt_km": 810.3191606275359, "timestamp": "2025-12-17T21:39:45.366585+00:00", "meta": {"OBJECT_NAME": "IONOSFERA-M 1", "OBJECT_ID": "2024-199A", "EPOCH": "2025-12-17T14:38:22.657344", "MEAN_MOTION": 14.22715122, "ECCENTRICITY": 7.218e-05, "INCLINATION": 98.7401, "RA_OF_ASC_NODE": 221.4208, "ARG_OF_PERICENTER": 14.0683, "MEAN_ANOMALY": 346.0514, "EPHEMERIS_TYPE": 0, "CLASSIFICATION_TYPE": "U", "NORAD_CAT_ID": 61735, "ELEMENT_SET_NO": 999, "REV_AT_EPOCH": 10188, "BSTAR": 4.4181648e-05, "MEAN_MOTION_DOT": 5.5e-07, "MEAN_MOTION_DDOT": 0}, "tle": {"line1": "1 61735U 24199A   25351.60998446  .00000055  00000+0  44182-4 0  9991", "line2": "2 61735  98.7401 221.4208 0000721  14.0683 346.0514 14.22715122101882"}}, "geometry": {"type": "Point", "coordinates": [-151.95275528474113, 56.92665840627953]}}, {"type": "Feature", "properties": {"norad_id": 61736, "name": "IONOSFERA-M 2", "group": "resource", "lat": -59.636306801880636, "lon": 26.39871698318563, "alt_km": 824.2026661701348, "timestamp": "2025-12-17T21:39:45.366594+00:00", "meta": {"OBJECT_NAME": "IONOSFERA-M 2", "OBJECT_ID": "2024-199B", "EPOCH": "2025-12-17T15:28:15.516192", "MEAN_MOTION": 14.2271727, "ECCENTRICITY": 0.00017515, "INCLINATION": 98.7407, "RA_OF_ASC_NODE": 221.3676, "ARG_OF_PERICENTER": 104.2388, "MEAN_ANOMALY": 255.8984, "EPHEMERIS_TYPE": 0, "CLASSIFICATION_TYPE": "U", "NORAD_CAT_ID": 61736, "ELEMENT_SET_NO": 999, "REV_AT_EPOCH": 10501, "BSTAR": 4.3219974e-05, "MEAN_MOTION_DOT": 5.3e-07, "MEAN_MOTION_DDOT": 0}, "tle": {"line1": "1 61736U 24199B   25351.64462403  .00000053  00000+0  43220-4 0  9995", "line2": "2 61736  98.7407 221.3676 0001751 104.2388 255.8984 14.22717270105018"}}, "geometry": {"type": "Point", "coordinates": [26.39871698318563, -59.636306801880636]}}, {"type": "Feature", "properties": {"norad_id": 63772, "name": "BIOMASS", "group": "resource", "lat": -4.718196672255932, "lon": -3.8341285706749426, "alt_km": 672.7236629871959, "timestamp": "2025-12-17T21:39:45.366603+00:00", "meta": {"OBJECT_NAME": "BIOMASS", "OBJECT_ID": "2025-090A", "EPOCH": "2025-12-17T12:38:31.581024", "MEAN_MOTION": 14.67538185, "ECCENTRICITY": 0.00011291, "INCLINATION": 98.07, "RA_OF_ASC_NODE": 176.4666, "ARG_OF_PERICENTER": 81.6745, "MEAN_ANOMALY": 278.4588, "EPHEMERIS_TYPE": 0, "CLASSIFICATION_TYPE": "U", "NORAD_CAT_ID": 63772, "ELEMENT_SET_NO": 999, "REV_AT_EPOCH": 3404, "BSTAR": 0.00020217054, "MEAN_MOTION_DOT": 1.099e-05, "MEAN_MOTION_DDOT": 0}, "tle": {"line1": "1 63772U 25090A   25351.52675441  .00001099  00000+0  20217-3 0  9994", "line2": "2 63772  98.0700 176.4666 0001129  81.6745 278.4588 14.67538185 34042"}}, "geometry": {"type": "Point", "coordinates": [-3.8341285706749426, -4.718196672255932]}}, {"type": "Feature", "properties": {"norad_id": 64694, "name": "GOSAT-GW (IBUKI GW)", "group": "resource", "lat": 34.08128568280743, "lon": -78.16802890199776, "alt_km": 666.0127825729887, "timestamp": "2025-12-17T21:39:45.366612+00:00", "meta": {"OBJECT_NAME": "GOSAT-GW (IBUKI GW)", "OBJECT_ID": "2025-141A", "EPOCH": "2025-12-17T14:57:38.484576", "MEAN_MOTION": 14.67562756, "ECCENTRICITY": 0.00014349, "INCLINATION": 98.0432, "RA_OF_ASC_NODE": 287.0477, "ARG_OF_PERICENTER": 83.6558, "MEAN_ANOMALY": 276.4811, "EPHEMERIS_TYPE": 0, "CLASSIFICATION_TYPE": "U", "NORAD_CAT_ID": 64694, "ELEMENT_SET_NO": 999, "REV_AT_EPOCH": 2521, "BSTAR": 0.00015234471, "MEAN_MOTION_DOT": 8.17e-06, "MEAN_MOTION_DDOT": 0}, "tle": {"line1": "1 64694U 25141A   25351.62336209  .00000817  00000+0  15234-3 0  9992", "line2": "2 64694  98.0432 287.0477 0001434  83.6558 276.4811 14.67562756 25217"}}, "geometry": {"type": "Point", "coordinates": [-78.16802890199776, 34.08128568280743]}}, {"type": "Feature", "properties": {"norad_id": 64876, "name": "IONOSFERA-M 3", "group": "resource", "lat": -77.77002241370641, "lon": 89.48126885736517, "alt_km": 829.1109003058264, "timestamp": "2025-12-17T21:39:45.366621+00:00", "meta": {"OBJECT_NAME": "IONOSFERA-M 3", "OBJECT_ID": "2025-155A", "EPOCH": "2025-12-17T15:22:08.857056", "MEAN_MOTION": 14.21442215, "ECCENTRICITY": 0.00021066, "INCLINATION": 98.5789, "RA_OF_ASC_NODE": 313.3679, "ARG_OF_PERICENTER": 52.0099, "MEAN_ANOMALY": 308.1269, "EPHEMERIS_TYPE": 0, "CLASSIFICATION_TYPE": "U", "NORAD_CAT_ID": 64876, "ELEMENT_SET_NO": 999, "REV_AT_EPOCH": 2061, "BSTAR": 4.3155589e-05, "MEAN_MOTION_DOT": 5.2e-07, "MEAN_MOTION_DDOT": 0}, "tle": {"line1": "1 64876U 25155A   25351.64038029  .00000052  00000+0  43156-4 0  9996", "line2": "2 64876  98.5789 313.3679 0002106  52.0099 308.1269 14.21442215 20619"}}, "geometry": {"type": "Point", "coordinates": [89.48126885736517, -77.77002241370641]}}, {"type": "Feature", "properties": {"norad_id": 64877, "name": "IONOSFERA-M 4", "group": "resource", "lat": 78.23072292396175, "lon": -92.88564745264352, "alt_km": 812.165330892859, "timestamp": "2025-12-17T21:39:45.366630+00:00", "meta": {"OBJECT_NAME": "IONOSFERA-M 4", "OBJECT_ID": "2025-155B", "EPOCH": "2025-12-17T14:31:16.470336", "MEAN_MOTION": 14.2144339, "ECCENTRICITY": 0.00014908, "INCLINATION": 98.5787, "RA_OF_ASC_NODE": 313.253, "ARG_OF_PERICENTER": 58.6848, "MEAN_ANOMALY": 301.4476, "EPHEMERIS_TYPE": 0, "CLASSIFICATION_TYPE": "U", "NORAD_CAT_ID": 64877, "ELEMENT_SET_NO": 999, "REV_AT_EPOCH": 2060, "BSTAR": 4.3673002e-05, "MEAN_MOTION_DOT": 5.3e-07, "MEAN_MOTION_DDOT": 0}, "tle": {"line1": "1 64877U 25155B   25351.60505174  .00000053  00000+0  43673-4 0  9998", "line2": "2 64877  98.5787 313.2530 0001490  58.6848 301.4476 14.21443390 20602"}}, "geometry": {"type": "Point", "coordinates": [-92.88564745264352, 78.23072292396175]}}, {"type": "Feature", "properties": {"norad_id": 64899, "name": "MICROCARB", "group": "resource", "lat": 80.18839786078401, "lon": -58.40206570614645, "alt_km": 636.8485815426193, "timestamp": "2025-12-17T21:39:45.366639+00:00", "meta": {"OBJECT_NAME": "MICROCARB", "OBJECT_ID": "2025-156A", "EPOCH": "2025-12-17T11:26:30.117408", "MEAN_MOTION": 14.72064901, "ECCENTRICITY": 0.00174088, "INCLINATION": 98.0022, "RA_OF_ASC_NODE": 66.7462, "ARG_OF_PERICENTER": 130.4021, "MEAN_ANOMALY": 229.8709, "EPHEMERIS_TYPE": 0, "CLASSIFICATION_TYPE": "U", "NORAD_CAT_ID": 64899, "ELEMENT_SET_NO": 999, "REV_AT_EPOCH": 2123, "BSTAR": 0.00010424062, "MEAN_MOTION_DOT": 6.07e-06, "MEAN_MOTION_DDOT": 0}, "tle": {"line1": "1 64899U 25156A   25351.47673747  .00000607  00000+0  10424-3 0  9992", "line2": "2 64899  98.0022  66.7462 0017408 130.4021 229.8709 14.72064901 21230"}}, "geometry": {"type": "Point", "coordinates": [-58.40206570614645, 80.18839786078401]}}, {"type": "Feature", "properties": {"norad_id": 64900, "name": "CO3D 3", "group": "resource", "lat": -49.04073592095382, "lon": 76.84695773394778, "alt_km": 512.8087359407036, "timestamp": "2025-12-17T21:39:45.366648+00:00", "meta": {"OBJECT_NAME": "CO3D 3", "OBJECT_ID": "2025-156B", "EPOCH": "2025-12-17T17:08:28.374720", "MEAN_MOTION": 15.20201422, "ECCENTRICITY": 0.00014, "INCLINATION": 97.4341, "RA_OF_ASC_NODE": 68.0098, "ARG_OF_PERICENTER": 84.1506, "MEAN_ANOMALY": 275.9889, "EPHEMERIS_TYPE": 0, "CLASSIFICATION_TYPE": "U", "NORAD_CAT_ID": 64900, "ELEMENT_SET_NO": 999, "REV_AT_EPOCH": 2196, "BSTAR": 6.5354e-05, "MEAN_MOTION_DOT": 1.347e-05, "MEAN_MOTION_DDOT": 0}, "tle": {"line1": "1 64900U 25156B   25351.71421730  .00001347  00000+0  65354-4 0  9990", "line2": "2 64900  97.4341  68.0098 0001400  84.1506 275.9889 15.20201422 21964"}}, "geometry": {"type": "Point", "coordinates": [76.84695773394778, -49.04073592095382]}}, {"type": "Feature", "properties": {"norad_id": 64901, "name": "CO3D 4", "group": "resource", "lat": -49.91668654051609, "lon": 77.12238660352924, "alt_km": 512.6499829372651, "timestamp": "2025-12-17T21:39:45.366657+00:00", "meta": {"OBJECT_NAME": "CO3D 4", "OBJECT_ID": "2025-156C", "EPOCH": "2025-12-17T15:33:55.698048", "MEAN_MOTION": 15.20212443, "ECCENTRICITY": 0.00011478, "INCLINATION": 97.4346, "RA_OF_ASC_NODE": 67.9457, "ARG_OF_PERICENTER": 180.0092, "MEAN_ANOMALY": 180.1143, "EPHEMERIS_TYPE": 0, "CLASSIFICATION_TYPE": "U", "NORAD_CAT_ID": 64901, "ELEMENT_SET_NO": 999, "REV_AT_EPOCH": 2195, "BSTAR": 0.00024180993, "MEAN_MOTION_DOT": 5.172e-05, "MEAN_MOTION_DDOT": 0}, "tle": {"line1": "1 64901U 25156C   25351.64856132  .00005172  00000+0  24181-3 0  9993", "line2": "2 64901  97.4346  67.9457 0001147 180.0092 180.1143 15.20212443 21955"}}, "geometry": {"type": "Point", "coordinates": [77.12238660352924, -49.91668654051609]}}]}